CUTE-1 (CO-55)          
1 27844U 03031E   22111.73113957  .00000251  00000+0  13220-3 0  9993
2 27844  98.6809 120.2705 0008625 265.9387  94.0805 14.22417870975806
CUBESAT XI-IV (CO-57)   
1 27848U 03031J   22111.74691083  .00000221  00000+0  11982-3 0  9999
2 27848  98.6856 120.8166 0008543 281.8974  78.1245 14.21979477975623
CUBESAT XI-V            
1 28895U 05043F   22111.59705677  .00001017  00000+0  20196-3 0  9996
2 28895  98.0971 243.8849 0015740 323.7357  36.2778 14.64218245879096
CUTE-1.7+APD II (CO-65) 
1 32785U 08021C   22111.79830854  .00002883  00000+0  30911-3 0  9994
2 32785  97.6531  84.4684 0014337  65.2697 295.0011 14.89330302758051
AAUSAT-II               
1 32788U 08021F   22111.49671448  .00005466  00000+0  48042-3 0  9990
2 32788  97.5314  98.8597 0009834 321.5977  38.4544 14.96909988759915
DELFI-C3 (DO-64)        
1 32789U 08021G   22111.87319110  .00014586  00000+0  84519-3 0  9990
2 32789  97.3452 140.2630 0012264 151.9070 208.2825 15.12231869763376
SEEDS II (CO-66)        
1 32791U 08021J   22112.19385537  .00003680  00000+0  36509-3 0  9994
2 32791  97.6080  90.4093 0013495  25.1106 335.0767 14.92293629758880
SWISSCUBE               
1 35932U 09051B   22112.12505573  .00000764  00000+0  18163-3 0  9991
2 35932  98.5759 326.4726 0006737 213.4467 146.6306 14.56775626667933
BEESAT-1                
1 35933U 09051C   22112.14962043  .00000651  00000+0  15625-3 0  9998
2 35933  98.5702 328.1645 0004752 225.6459 134.4349 14.56803245668057
ITUPSAT1                
1 35935U 09051E   22112.13274241  .00000596  00000+0  14679-3 0  9991
2 35935  98.5805 328.2173 0007043 231.4871 128.5694 14.55919040667718
TISAT 1                 
1 36799U 10035E   22111.81041961  .00002719  00000+0  27028-3 0  9990
2 36799  98.1891 320.0173 0010565 284.1011  75.9032 14.92560122639312
M-CUBED & EXP-1 PRIME   
1 37855U 11061F   22111.18095115  .00011604  00000+0  52519-3 0  9990
2 37855 101.7035 200.0915 0158340 233.7215 124.9285 15.10660243572584
AEROCUBE 4.5A           
1 38767U 12048K   22111.77754605  .00004079  00000+0  29014-3 0  9992
2 38767  64.6653 288.7671 0177282 277.8953  80.2071 14.94323073142315
AEROCUBE 4.5B           
1 38768U 12048L   22111.63441956  .00007728  00000+0  49116-3 0  9999
2 38768  64.6665 245.0480 0165816 273.3043  84.9115 14.98794365142639
STRAND-1                
1 39090U 13009E   22111.48325617  .00000193  00000+0  82136-4 0  9993
2 39090  98.4088 311.0950 0010334  82.2824 277.9534 14.35272520479228
BRITE-AUSTRIA           
1 39091U 13009F   22112.09461069  .00000168  00000+0  73463-4 0  9999
2 39091  98.4101 310.8521 0011694  86.6256 273.6267 14.35252518479358
SOMP                    
1 39134U 13015E   22111.47949774  .00018180  00000+0  68414-3 0  9991
2 39134  64.8624 248.6378 0033303 289.2029  70.5498 15.26706613498151
BEESAT-3                
1 39135U 13015F   22112.19230279  .00012219  00000+0  52351-3 0  9995
2 39135  64.8667 281.0755 0034794 297.0638  62.6942 15.22542263497977
BEESAT-2                
1 39136U 13015G   22111.48304107  .00011578  00000+0  51716-3 0  9990
2 39136  64.8751 291.2025 0012323 288.5472  71.4317 15.21633245497244
NEE-01 PEGASO           
1 39151U 13018B   22112.22642371  .00001637  00000+0  21885-3 0  9990
2 39151  97.9854 218.1076 0018155  79.1354 281.1900 14.80769758485369
ESTCUBE 1               
1 39161U 13021C   22112.17261450  .00001061  00000+0  17354-3 0  9991
2 39161  97.9093 190.8734 0008369 238.7414 121.2942 14.72810494481189
POPACS 1                
1 39268U 13055D   22111.85605922  .00017548  00000+0  45077-3 0  9996
2 39268  80.9957 300.3061 0578432  11.3384 350.0204 14.48784791445101
POPACS 2                
1 39269U 13055E   22112.13828324  .00011411  00000+0  31412-3 0  9993
2 39269  81.0139 355.1415 0652502 153.2625 210.3837 14.31722470443344
POPACS 3                
1 39270U 13055F   22111.49906881  .00004149  00000+0  12787-3 0  9992
2 39270  81.0192  27.6606 0691396 245.4806 107.2812 14.21100352420549
ZACUBE-1 (TSHEPISOSAT)  
1 39417U 13066B   22111.66084006  .00001755  00000+0  22119-3 0  9992
2 39417  97.6323  85.7488 0056682 229.8442 129.7800 14.82107316454715
WNISAT-1                
1 39423U 13066H   22112.18725273  .00000648  00000+0  13752-3 0  9998
2 39423  97.7608 357.7859 0174039 314.0316  44.6655 14.53420578446278
TRITON-1                
1 39427U 13066M   22111.59030971  .00001926  00000+0  30739-3 0  9994
2 39427  97.8098  49.8804 0113952  86.4441 274.9789 14.68719633450439
DELFI-N3XT              
1 39428U 13066N   22112.12849840  .00003318  00000+0  51742-3 0  9992
2 39428  97.8115  48.9339 0119813  97.7542 263.7287 14.68786344450445
GOMX-1                  
1 39430U 13066Q   22112.05480014  .00001014  00000+0  19014-3 0  9998
2 39430  97.8124  22.4730 0148412 222.3696 136.5972 14.60033290448063
CUBEBUG-2 (LO-74)       
1 39440U 13066AA  22111.61325431  .00002367  00000+0  32825-3 0  9998
2 39440  97.7212  71.5856 0077920 316.8810  42.6313 14.76805942453090
NEE-02 KRYSAOR          
1 39441U 13066AB  22111.63563558  .00001749  00000+0  25092-3 0  9996
2 39441  97.7320  68.8226 0080096 330.0010  29.6623 14.75592783452812
FUNCUBE-1 (AO-73)       
1 39444U 13066AE  22111.65050853  .00002109  00000+0  25808-3 0  9996
2 39444  97.6204  88.1383 0055792 218.1695 141.5563 14.83134709453697
UWE-3                   
1 39446U 13066AG  22111.39472724  .00001950  00000+0  25892-3 0  9990
2 39446  97.6806  77.9514 0067276 275.6159  83.7384 14.79358347452027
AEROCUBE 5A             
1 39465U 13072D   22111.72457861  .00032338  00000+0  20489-2 0  9990
2 39465 120.4858 101.2906 0205755 215.9578 142.7481 14.92922367141140
AEROCUBE 5B             
1 39466U 13072E   22111.85615307  .00059978  00000+0  27249-2 0  9996
2 39466 120.4589 182.0426 0160018 234.2150 124.3949 15.09553025142166
BRITE-CA1 (TORONTO)     
1 40020U 14033L   22112.01032229  .00000818  00000+0  14602-3 0  9996
2 40020  97.7718 273.8659 0088338  83.6970 277.4288 14.66965380419505
DUCHIFAT-1              
1 40021U 14033M   22111.56096199  .00003617  00000+0  35854-3 0  9994
2 40021  98.0082  60.7669 0011216 223.1045 136.9296 14.92415729426213
NANOSATC-BR1            
1 40024U 14033Q   22111.52336849  .00003834  00000+0  39000-3 0  9990
2 40024  97.9816  54.3919 0010538 229.9540 130.0754 14.91337392425497
QB50P1                  
1 40025U 14033R   22111.52440711  .00002663  00000+0  28059-3 0  9996
2 40025  97.9571  48.5069 0010708 241.4346 118.5794 14.90185816425282
QB50P2                  
1 40032U 14033Y   22111.86432723  .00002447  00000+0  26177-3 0  9994
2 40032  97.9352  44.4385 0010228 237.4383 122.5847 14.89639808425193
PERSEUS-M2              
1 40037U 14033AD  22111.51479862  .00001044  00000+0  12275-3 0  9992
2 40037  97.8962  34.0642 0012776 264.7023  95.2735 14.86976719424664
PERSEUS-M1              
1 40039U 14033AF  22112.03314769  .00001066  00000+0  12628-3 0  9992
2 40039  97.8871  32.4443 0012620 261.5998  98.3787 14.86590659425139
POLYITAN-1              
1 40042U 14033AJ  22111.53828469  .00002870  00000+0  30211-3 0  9999
2 40042  97.9673  49.6377 0012992 233.0240 126.9789 14.90141284425171
TIGRISAT                
1 40043U 14033AK  22111.78442025  .00001017  00000+0  15476-3 0  9995
2 40043  97.6585 304.1009 0058903 341.4303  18.4757 14.74873325421275
AEROCUBE 6A             
1 40045U 14033AM  22112.14572406  .00001145  00000+0  16839-3 0  9991
2 40045  97.6711 313.0134 0056268 328.5435  31.2414 14.76245847421716
AEROCUBE 6B             
1 40046U 14033AN  22111.11692135  .00001897  00000+0  27297-3 0  9994
2 40046  97.6621 310.5397 0055403 330.1854  29.6203 14.76465678421324
UKUBE-1                 
1 40074U 14037F   22112.09952771  .00001965  00000+0  23655-3 0  9992
2 40074  98.3902 349.8073 0005445 104.1983 255.9897 14.85151677421700
BRITE-PL2 (HEWELIUSZ)   
1 40119U 14049B   22111.54393601  .00001224  00000+0  14950-3 0  9991
2 40119  97.8803 207.7708 0018558  70.4651 289.8566 14.84987918415567
FIREBIRD 4              
1 40378U 15003C   22112.16947856  .00018196  00000+0  57453-3 0  9996
2 40378  99.1092 324.8083 0104869 214.8463 144.5875 15.27639321399833
GRIFEX                  
1 40379U 15003D   22112.06151439  .00012182  00000+0  44770-3 0  9997
2 40379  99.1181 311.1821 0118293 255.9061 102.8999 15.21696774399055
CP10 (EXOCUBE)          
1 40380U 15003E   22111.78222171  .00007792  00000+0  30908-3 0  9998
2 40380  99.1253 303.9488 0125235 280.0208  78.6909 15.18743731398558
TIANWANG 1A (TW-1A)     
1 40928U 15051D   22112.20010162  .00034812  00000+0  51733-3 0  9994
2 40928  97.0455 135.5110 0006867 216.4319 208.7270 15.55075646369484
EXACTVIEW 9             
1 40936U 15052G   22109.43226015  .00001712  00000+0  14834-3 0  9995
2 40936   6.0023 234.7739 0010133  38.5229 321.5621 14.77015100354476
AEROCUBE 5C             
1 40965U 15058B   22112.12767795  .00003331  00000+0  37139-3 0  9990
2 40965  64.7775 262.2548 0199720 217.9001 140.7907 14.75366506140656
AEROCUBE 7              
1 40966U 15058C   22111.53658516  .00003832  00000+0  42129-3 0  9996
2 40966  64.7780 261.3871 0198001 217.7518 140.9559 14.75858342140563
ATHENOXAT 1             
1 41168U 15077C   22111.46185199  .00013950  00000+0  60498-3 0  9997
2 41168  14.9842 152.3843 0010800 164.7755 233.8876 15.19307672351625
GALASSIA                
1 41170U 15077E   22111.42495848  .00013250  00000+0  57794-3 0  9999
2 41170  14.9875 143.1262 0011579 187.7934 172.2208 15.19008538351539
VELOX-II                
1 41171U 15077F   22111.44783955  .00009846  00000+0  47730-3 0  9996
2 41171  14.9901 213.3318 0008088  35.5847 324.5012 15.14810244350956
HORYU-4                 
1 41340U 16012D   22111.39594118  .00004349  00000+0  30978-3 0  9998
2 41340  31.0061   3.4092 0013678 351.5030   8.5373 15.02881981339133
